XCUBE-1                 
1 62400U 24247Z   26068.48297321  .00009773  00000+0  36224-3 0  9994
2 62400  44.9938 117.7807 0005235 331.1499  28.9094 15.27910558 67702
STARLINK-34531          
1 64750U 25144AC  26068.62734710 -.00034690  00000+0 -11666-2 0  9995
2 64750  53.1607 181.2366 0002417  48.4635 311.6573 15.30140586 39705
